STARLINK-30191          
1 57413U 23102K   26068.33620404 -.00002114  00000+0 -67356-4 0  9992
2 57413  43.0051 188.6450 0001359 246.2727 113.7982 15.27568618146916
FLOCK 4G-24             
1 62637U 25009AE  26068.72509072  .00010513  00000+0  38996-3 0  9991
2 62637  97.4061 151.5140 0001802 280.2808  79.8228 15.27784978 63732
